STARLINK-36649          
1 67837U 26033S   26063.12734492  .00276435  00000+0  12678-2 0  9996
2 67837  42.9970 305.4545 0002302 271.8671  88.1937 15.82117549  3742
STARLINK-36654          
1 67838U 26033T   26063.12659314  .00333655  00000+0  15190-2 0  9996
2 67838  42.9969 305.4475 0003165 236.2876 123.7694 15.82124206  3747
STARLINK-36652          
1 67839U 26033U   26062.99957699  .00432482  00000+0  19398-2 0  9990
2 67839  42.9967 306.2154 0002962 282.6345  77.4196 15.82188625  3724
STARLINK-36651          
1 67840U 26033V   26063.12509733  .00299032  00000+0  13670-2 0  9999
2 67840  42.9972 305.4357 0002208 277.9641  82.0980 15.82127850  3745
STARLINK-36656          
1 67841U 26033W   26063.12434494  .00332823  00000+0  15136-2 0  9996
2 67841  42.9974 305.4294 0002150 267.8262  92.2364 15.82150862  3749
STARLINK-36653          
1 67842U 26033X   26063.06046857  .00203400  00000+0  94330-3 0  9994
2 67842  42.9970 305.8102 0001252 227.8055 132.2711 15.82076423  3736
STARLINK-36589          
1 67843U 26033Y   26063.05971371  .00128075  00000+0  60064-3 0  9993
2 67843  42.9971 305.8043 0001942 286.4993  73.5666 15.82056749  3735
STARLINK-36598          
1 67844U 26033Z   26063.05896607  .00302281  00000+0  13811-2 0  9992
2 67844  42.9971 305.7975 0001892 272.0076  88.0579 15.82130547  3739
STARLINK-36606          
1 67845U 26033AA  26063.05822017  .00162279  00000+0  75727-3 0  9993
2 67845  42.9972 305.7918 0001475 271.0960  88.9742 15.82060503  3731
STARLINK-36658          
1 67846U 26033AB  26063.12060132  .00262648  00000+0  12071-2 0  9997
2 67846  42.9968 305.3987 0001823 262.2390  97.8275 15.82108836  3748
STARLINK-36618          
1 67847U 26033AC  26063.41668981 -.01066172  35289-3 -25250-2 0  9997
2 67847  42.9858 301.8585 0002229 270.5353 296.6401 15.95836455  3811
STARLINK-36660          
1 67848U 26033AD  26063.05671704  .00223149  00000+0  10300-2 0  9990
2 67848  42.9971 305.7789 0002677 270.4481  89.6084 15.82121203  3737
