CCSDS_OMM_VERS = 2.0
CREATION_DATE  = 
ORIGINATOR     = 

OBJECT_NAME    = STARLINK-36649
OBJECT_ID      = 2026-033S
CENTER_NAME    = EARTH
REF_FRAME      = TEME
TIME_SYSTEM    = UTC
MEAN_ELEMENT_THEORY = SGP/SGP4

EPOCH          = 2026-03-04T03:03:22.601088
MEAN_MOTION    = 15.82117549
ECCENTRICITY   = .0002302
INCLINATION    = 42.9970
RA_OF_ASC_NODE = 305.4545
ARG_OF_PERICENTER = 271.8671
MEAN_ANOMALY   = 88.1937

EPHEMERIS_TYPE = 0
CLASSIFICATION_TYPE = U
NORAD_CAT_ID   = 67837
ELEMENT_SET_NO = 999
REV_AT_EPOCH   = 374
BSTAR          = .12678E-2
MEAN_MOTION_DOT = .276435E-2
MEAN_MOTION_DDOT = 0

CCSDS_OMM_VERS = 2.0
CREATION_DATE  = 
ORIGINATOR     = 

OBJECT_NAME    = STARLINK-36654
OBJECT_ID      = 2026-033T
CENTER_NAME    = EARTH
REF_FRAME      = TEME
TIME_SYSTEM    = UTC
MEAN_ELEMENT_THEORY = SGP/SGP4

EPOCH          = 2026-03-04T03:02:17.647296
MEAN_MOTION    = 15.82124206
ECCENTRICITY   = .0003165
INCLINATION    = 42.9969
RA_OF_ASC_NODE = 305.4475
ARG_OF_PERICENTER = 236.2876
MEAN_ANOMALY   = 123.7694

EPHEMERIS_TYPE = 0
CLASSIFICATION_TYPE = U
NORAD_CAT_ID   = 67838
ELEMENT_SET_NO = 999
REV_AT_EPOCH   = 374
BSTAR          = .1519E-2
MEAN_MOTION_DOT = .333655E-2
MEAN_MOTION_DDOT = 0

CCSDS_OMM_VERS = 2.0
CREATION_DATE  = 
ORIGINATOR     = 

OBJECT_NAME    = STARLINK-36652
OBJECT_ID      = 2026-033U
CENTER_NAME    = EARTH
REF_FRAME      = TEME
TIME_SYSTEM    = UTC
MEAN_ELEMENT_THEORY = SGP/SGP4

EPOCH          = 2026-03-03T23:59:23.451936
MEAN_MOTION    = 15.82188625
ECCENTRICITY   = .0002962
INCLINATION    = 42.9967
RA_OF_ASC_NODE = 306.2154
ARG_OF_PERICENTER = 282.6345
MEAN_ANOMALY   = 77.4196

EPHEMERIS_TYPE = 0
CLASSIFICATION_TYPE = U
NORAD_CAT_ID   = 67839
ELEMENT_SET_NO = 999
REV_AT_EPOCH   = 372
BSTAR          = .19398E-2
MEAN_MOTION_DOT = .432482E-2
MEAN_MOTION_DDOT = 0

CCSDS_OMM_VERS = 2.0
CREATION_DATE  = 
ORIGINATOR     = 

OBJECT_NAME    = STARLINK-36651
OBJECT_ID      = 2026-033V
CENTER_NAME    = EARTH
REF_FRAME      = TEME
TIME_SYSTEM    = UTC
MEAN_ELEMENT_THEORY = SGP/SGP4

EPOCH          = 2026-03-04T03:00:08.409312
MEAN_MOTION    = 15.82127850
ECCENTRICITY   = .0002208
INCLINATION    = 42.9972
RA_OF_ASC_NODE = 305.4357
ARG_OF_PERICENTER = 277.9641
MEAN_ANOMALY   = 82.0980

EPHEMERIS_TYPE = 0
CLASSIFICATION_TYPE = U
NORAD_CAT_ID   = 67840
ELEMENT_SET_NO = 999
REV_AT_EPOCH   = 374
BSTAR          = .1367E-2
MEAN_MOTION_DOT = .299032E-2
MEAN_MOTION_DDOT = 0

CCSDS_OMM_VERS = 2.0
CREATION_DATE  = 
ORIGINATOR     = 

OBJECT_NAME    = STARLINK-36656
OBJECT_ID      = 2026-033W
CENTER_NAME    = EARTH
REF_FRAME      = TEME
TIME_SYSTEM    = UTC
MEAN_ELEMENT_THEORY = SGP/SGP4

EPOCH          = 2026-03-04T02:59:03.402816
MEAN_MOTION    = 15.82150862
ECCENTRICITY   = .000215
INCLINATION    = 42.9974
RA_OF_ASC_NODE = 305.4294
ARG_OF_PERICENTER = 267.8262
MEAN_ANOMALY   = 92.2364

EPHEMERIS_TYPE = 0
CLASSIFICATION_TYPE = U
NORAD_CAT_ID   = 67841
ELEMENT_SET_NO = 999
REV_AT_EPOCH   = 374
BSTAR          = .15136E-2
MEAN_MOTION_DOT = .332823E-2
MEAN_MOTION_DDOT = 0

CCSDS_OMM_VERS = 2.0
CREATION_DATE  = 
ORIGINATOR     = 

OBJECT_NAME    = STARLINK-36653
OBJECT_ID      = 2026-033X
CENTER_NAME    = EARTH
REF_FRAME      = TEME
TIME_SYSTEM    = UTC
MEAN_ELEMENT_THEORY = SGP/SGP4

EPOCH          = 2026-03-04T01:27:04.484448
MEAN_MOTION    = 15.82076423
ECCENTRICITY   = .0001252
INCLINATION    = 42.9970
RA_OF_ASC_NODE = 305.8102
ARG_OF_PERICENTER = 227.8055
MEAN_ANOMALY   = 132.2711

EPHEMERIS_TYPE = 0
CLASSIFICATION_TYPE = U
NORAD_CAT_ID   = 67842
ELEMENT_SET_NO = 999
REV_AT_EPOCH   = 373
BSTAR          = .9433E-3
MEAN_MOTION_DOT = .2034E-2
MEAN_MOTION_DDOT = 0

CCSDS_OMM_VERS = 2.0
CREATION_DATE  = 
ORIGINATOR     = 

OBJECT_NAME    = STARLINK-36589
OBJECT_ID      = 2026-033Y
CENTER_NAME    = EARTH
REF_FRAME      = TEME
TIME_SYSTEM    = UTC
MEAN_ELEMENT_THEORY = SGP/SGP4

EPOCH          = 2026-03-04T01:25:59.264544
MEAN_MOTION    = 15.82056749
ECCENTRICITY   = .0001942
INCLINATION    = 42.9971
RA_OF_ASC_NODE = 305.8043
ARG_OF_PERICENTER = 286.4993
MEAN_ANOMALY   = 73.5666

EPHEMERIS_TYPE = 0
CLASSIFICATION_TYPE = U
NORAD_CAT_ID   = 67843
ELEMENT_SET_NO = 999
REV_AT_EPOCH   = 373
BSTAR          = .60064E-3
MEAN_MOTION_DOT = .128075E-2
MEAN_MOTION_DDOT = 0

CCSDS_OMM_VERS = 2.0
CREATION_DATE  = 
ORIGINATOR     = 

OBJECT_NAME    = STARLINK-36598
OBJECT_ID      = 2026-033Z
CENTER_NAME    = EARTH
REF_FRAME      = TEME
TIME_SYSTEM    = UTC
MEAN_ELEMENT_THEORY = SGP/SGP4

EPOCH          = 2026-03-04T01:24:54.668448
MEAN_MOTION    = 15.82130547
ECCENTRICITY   = .0001892
INCLINATION    = 42.9971
RA_OF_ASC_NODE = 305.7975
ARG_OF_PERICENTER = 272.0076
MEAN_ANOMALY   = 88.0579

EPHEMERIS_TYPE = 0
CLASSIFICATION_TYPE = U
NORAD_CAT_ID   = 67844
ELEMENT_SET_NO = 999
REV_AT_EPOCH   = 373
BSTAR          = .13811E-2
MEAN_MOTION_DOT = .302281E-2
MEAN_MOTION_DDOT = 0

CCSDS_OMM_VERS = 2.0
CREATION_DATE  = 
ORIGINATOR     = 

OBJECT_NAME    = STARLINK-36606
OBJECT_ID      = 2026-033AA
CENTER_NAME    = EARTH
REF_FRAME      = TEME
TIME_SYSTEM    = UTC
MEAN_ELEMENT_THEORY = SGP/SGP4

EPOCH          = 2026-03-04T01:23:50.222688
MEAN_MOTION    = 15.82060503
ECCENTRICITY   = .0001475
INCLINATION    = 42.9972
RA_OF_ASC_NODE = 305.7918
ARG_OF_PERICENTER = 271.0960
MEAN_ANOMALY   = 88.9742

EPHEMERIS_TYPE = 0
CLASSIFICATION_TYPE = U
NORAD_CAT_ID   = 67845
ELEMENT_SET_NO = 999
REV_AT_EPOCH   = 373
BSTAR          = .75727E-3
MEAN_MOTION_DOT = .162279E-2
MEAN_MOTION_DDOT = 0

CCSDS_OMM_VERS = 2.0
CREATION_DATE  = 
ORIGINATOR     = 

OBJECT_NAME    = STARLINK-36658
OBJECT_ID      = 2026-033AB
CENTER_NAME    = EARTH
REF_FRAME      = TEME
TIME_SYSTEM    = UTC
MEAN_ELEMENT_THEORY = SGP/SGP4

EPOCH          = 2026-03-04T02:53:39.954048
MEAN_MOTION    = 15.82108836
ECCENTRICITY   = .0001823
INCLINATION    = 42.9968
RA_OF_ASC_NODE = 305.3987
ARG_OF_PERICENTER = 262.2390
MEAN_ANOMALY   = 97.8275

EPHEMERIS_TYPE = 0
CLASSIFICATION_TYPE = U
NORAD_CAT_ID   = 67846
ELEMENT_SET_NO = 999
REV_AT_EPOCH   = 374
BSTAR          = .12071E-2
MEAN_MOTION_DOT = .262648E-2
MEAN_MOTION_DDOT = 0

CCSDS_OMM_VERS = 2.0
CREATION_DATE  = 
ORIGINATOR     = 

OBJECT_NAME    = STARLINK-36618
OBJECT_ID      = 2026-033AC
CENTER_NAME    = EARTH
REF_FRAME      = TEME
TIME_SYSTEM    = UTC
MEAN_ELEMENT_THEORY = SGP/SGP4

EPOCH          = 2026-03-04T10:00:01.999584
MEAN_MOTION    = 15.95836455
ECCENTRICITY   = .0002229
INCLINATION    = 42.9858
RA_OF_ASC_NODE = 301.8585
ARG_OF_PERICENTER = 270.5353
MEAN_ANOMALY   = 296.6401

EPHEMERIS_TYPE = 0
CLASSIFICATION_TYPE = U
NORAD_CAT_ID   = 67847
ELEMENT_SET_NO = 999
REV_AT_EPOCH   = 381
BSTAR          = -.2525E-2
MEAN_MOTION_DOT = -.1066172E-1
MEAN_MOTION_DDOT = .35289E-3

CCSDS_OMM_VERS = 2.0
CREATION_DATE  = 
ORIGINATOR     = 

OBJECT_NAME    = STARLINK-36660
OBJECT_ID      = 2026-033AD
CENTER_NAME    = EARTH
REF_FRAME      = TEME
TIME_SYSTEM    = UTC
MEAN_ELEMENT_THEORY = SGP/SGP4

EPOCH          = 2026-03-04T01:21:40.352256
MEAN_MOTION    = 15.82121203
ECCENTRICITY   = .0002677
INCLINATION    = 42.9971
RA_OF_ASC_NODE = 305.7789
ARG_OF_PERICENTER = 270.4481
MEAN_ANOMALY   = 89.6084

EPHEMERIS_TYPE = 0
CLASSIFICATION_TYPE = U
NORAD_CAT_ID   = 67848
ELEMENT_SET_NO = 999
REV_AT_EPOCH   = 373
BSTAR          = .103E-2
MEAN_MOTION_DOT = .223149E-2
MEAN_MOTION_DDOT = 0

